[{"OBJECT_NAME":"QIANFAN-69","OBJECT_ID":"2025-016Q","EPOCH":"2026-03-06T12:54:42.818976","MEAN_MOTION":13.51005417,"ECCENTRICITY":0.00179728,"INCLINATION":88.9666,"RA_OF_ASC_NODE":94.2773,"ARG_OF_PERICENTER":102.2582,"MEAN_ANOMALY":258.0583,"EPHEMERIS_TYPE":0,"CLASSIFICATION_TYPE":"U","NORAD_CAT_ID":62799,"ELEMENT_SET_NO":999,"REV_AT_EPOCH":5859,"BSTAR":5.0758268e-5,"MEAN_MOTION_DOT":4.5e-7,"MEAN_MOTION_DDOT":0},{"OBJECT_NAME":"QIANFAN-70","OBJECT_ID":"2025-016R","EPOCH":"2026-03-06T13:18:21.769632","MEAN_MOTION":13.50997154,"ECCENTRICITY":0.0017571,"INCLINATION":88.9687,"RA_OF_ASC_NODE":94.4319,"ARG_OF_PERICENTER":93.7624,"MEAN_ANOMALY":266.5537,"EPHEMERIS_TYPE":0,"CLASSIFICATION_TYPE":"U","NORAD_CAT_ID":62800,"ELEMENT_SET_NO":999,"REV_AT_EPOCH":5855,"BSTAR":4.7984872e-5,"MEAN_MOTION_DOT":4.3e-7,"MEAN_MOTION_DDOT":0},{"OBJECT_NAME":"QIANFAN-71","OBJECT_ID":"2025-016S","EPOCH":"2026-03-06T13:12:21.511872","MEAN_MOTION":13.50996607,"ECCENTRICITY":0.00178644,"INCLINATION":88.9681,"RA_OF_ASC_NODE":94.4067,"ARG_OF_PERICENTER":105.3633,"MEAN_ANOMALY":254.9493,"EPHEMERIS_TYPE":0,"CLASSIFICATION_TYPE":"U","NORAD_CAT_ID":62801,"ELEMENT_SET_NO":999,"REV_AT_EPOCH":5855,"BSTAR":3.5346279e-5,"MEAN_MOTION_DOT":3.5e-7,"MEAN_MOTION_DDOT":0},{"OBJECT_NAME":"QIANFAN-72","OBJECT_ID":"2025-016T","EPOCH":"2026-03-06T13:36:04.418784","MEAN_MOTION":13.50996244,"ECCENTRICITY":0.00210749,"INCLINATION":88.9671,"RA_OF_ASC_NODE":94.4101,"ARG_OF_PERICENTER":111.9725,"MEAN_ANOMALY":248.3669,"EPHEMERIS_TYPE":0,"CLASSIFICATION_TYPE":"U","NORAD_CAT_ID":62802,"ELEMENT_SET_NO":999,"REV_AT_EPOCH":5854,"BSTAR":8.948399e-6,"MEAN_MOTION_DOT":1.8e-7,"MEAN_MOTION_DDOT":0},{"OBJECT_NAME":"QIANFAN-73","OBJECT_ID":"2025-046A","EPOCH":"2026-03-06T14:14:44.576736","MEAN_MOTION":13.50998716,"ECCENTRICITY":0.00131902,"INCLINATION":88.9757,"RA_OF_ASC_NODE":311.3628,"ARG_OF_PERICENTER":239.7421,"MEAN_ANOMALY":120.2425,"EPHEMERIS_TYPE":0,"CLASSIFICATION_TYPE":"U","NORAD_CAT_ID":63159,"ELEMENT_SET_NO":999,"REV_AT_EPOCH":5873,"BSTAR":0.0002589578,"MEAN_MOTION_DOT":1.79e-6,"MEAN_MOTION_DDOT":0},{"OBJECT_NAME":"QIANFAN-74","OBJECT_ID":"2025-046B","EPOCH":"2026-03-06T15:37:46.636608","MEAN_MOTION":13.50998644,"ECCENTRICITY":0.00019028,"INCLINATION":88.9757,"RA_OF_ASC_NODE":311.2456,"ARG_OF_PERICENTER":78.6169,"MEAN_ANOMALY":281.5196,"EPHEMERIS_TYPE":0,"CLASSIFICATION_TYPE":"U","NORAD_CAT_ID":63160,"ELEMENT_SET_NO":999,"REV_AT_EPOCH":5880,"BSTAR":0.00027628765,"MEAN_MOTION_DOT":1.9e-6,"MEAN_MOTION_DDOT":0},{"OBJECT_NAME":"QIANFAN-75","OBJECT_ID":"2025-046C","EPOCH":"2026-03-06T15:19:15.396096","MEAN_MOTION":13.50998026,"ECCENTRICITY":0.00143561,"INCLINATION":88.9759,"RA_OF_ASC_NODE":311.4818,"ARG_OF_PERICENTER":243.2991,"MEAN_ANOMALY":116.6691,"EPHEMERIS_TYPE":0,"CLASSIFICATION_TYPE":"U","NORAD_CAT_ID":63161,"ELEMENT_SET_NO":999,"REV_AT_EPOCH":5867,"BSTAR":0.00010283411,"MEAN_MOTION_DOT":7.8e-7,"MEAN_MOTION_DDOT":0},{"OBJECT_NAME":"QIANFAN-76","OBJECT_ID":"2025-046D","EPOCH":"2026-03-06T01:00:44.822016","MEAN_MOTION":13.51014427,"ECCENTRICITY":0.00118768,"INCLINATION":88.976,"RA_OF_ASC_NODE":311.5234,"ARG_OF_PERICENTER":245.9495,"MEAN_ANOMALY":114.0413,"EPHEMERIS_TYPE":0,"CLASSIFICATION_TYPE":"U","NORAD_CAT_ID":63162,"ELEMENT_SET_NO":999,"REV_AT_EPOCH":5860,"BSTAR":0.00021912783,"MEAN_MOTION_DOT":1.53e-6,"MEAN_MOTION_DDOT":0},{"OBJECT_NAME":"QIANFAN-77","OBJECT_ID":"2025-046E","EPOCH":"2026-03-06T14:41:45.060576","MEAN_MOTION":13.96175397,"ECCENTRICITY":0.00145853,"INCLINATION":88.9754,"RA_OF_ASC_NODE":308.7821,"ARG_OF_PERICENTER":171.2451,"MEAN_ANOMALY":188.8983,"EPHEMERIS_TYPE":0,"CLASSIFICATION_TYPE":"U","NORAD_CAT_ID":63163,"ELEMENT_SET_NO":999,"REV_AT_EPOCH":6015,"BSTAR":0.00029185616,"MEAN_MOTION_DOT":4.15e-6,"MEAN_MOTION_DDOT":0},{"OBJECT_NAME":"QIANFAN-78","OBJECT_ID":"2025-046F","EPOCH":"2026-03-06T14:26:35.916576","MEAN_MOTION":13.50998995,"ECCENTRICITY":0.00132126,"INCLINATION":88.9757,"RA_OF_ASC_NODE":311.3287,"ARG_OF_PERICENTER":246.8637,"MEAN_ANOMALY":113.1123,"EPHEMERIS_TYPE":0,"CLASSIFICATION_TYPE":"U","NORAD_CAT_ID":63164,"ELEMENT_SET_NO":999,"REV_AT_EPOCH":5875,"BSTAR":0.00031682715,"MEAN_MOTION_DOT":2.17e-6,"MEAN_MOTION_DDOT":0},{"OBJECT_NAME":"QIANFAN-79","OBJECT_ID":"2025-046G","EPOCH":"2026-03-06T15:08:15.906624","MEAN_MOTION":13.51009093,"ECCENTRICITY":0.00130756,"INCLINATION":88.9761,"RA_OF_ASC_NODE":311.4366,"ARG_OF_PERICENTER":244.9234,"MEAN_ANOMALY":115.056,"EPHEMERIS_TYPE":0,"CLASSIFICATION_TYPE":"U","NORAD_CAT_ID":63165,"ELEMENT_SET_NO":999,"REV_AT_EPOCH":5870,"BSTAR":0.00029018972,"MEAN_MOTION_DOT":1.99e-6,"MEAN_MOTION_DDOT":0},{"OBJECT_NAME":"QIANFAN-80","OBJECT_ID":"2025-046H","EPOCH":"2026-03-06T15:31:44.663808","MEAN_MOTION":13.50998623,"ECCENTRICITY":0.00118911,"INCLINATION":88.9758,"RA_OF_ASC_NODE":311.1395,"ARG_OF_PERICENTER":249.561,"MEAN_ANOMALY":110.4264,"EPHEMERIS_TYPE":0,"CLASSIFICATION_TYPE":"U","NORAD_CAT_ID":63166,"ELEMENT_SET_NO":999,"REV_AT_EPOCH":5886,"BSTAR":0.00025099881,"MEAN_MOTION_DOT":1.74e-6,"MEAN_MOTION_DDOT":0},{"OBJECT_NAME":"QIANFAN-81","OBJECT_ID":"2025-046J","EPOCH":"2026-03-06T15:00:18.061920","MEAN_MOTION":13.50984475,"ECCENTRICITY":0.00130109,"INCLINATION":88.9758,"RA_OF_ASC_NODE":311.2096,"ARG_OF_PERICENTER":237.3129,"MEAN_ANOMALY":122.6768,"EPHEMERIS_TYPE":0,"CLASSIFICATION_TYPE":"U","NORAD_CAT_ID":63167,"ELEMENT_SET_NO":999,"REV_AT_EPOCH":5881,"BSTAR":0.00025101362,"MEAN_MOTION_DOT":1.74e-6,"MEAN_MOTION_DDOT":0},{"OBJECT_NAME":"QIANFAN-82","OBJECT_ID":"2025-046K","EPOCH":"2026-03-06T15:49:34.759776","MEAN_MOTION":13.51000055,"ECCENTRICITY":0.00110363,"INCLINATION":88.9758,"RA_OF_ASC_NODE":311.25,"ARG_OF_PERICENTER":245.0496,"MEAN_ANOMALY":114.9508,"EPHEMERIS_TYPE":0,"CLASSIFICATION_TYPE":"U","NORAD_CAT_ID":63168,"ELEMENT_SET_NO":999,"REV_AT_EPOCH":5880,"BSTAR":0.00027835628,"MEAN_MOTION_DOT":1.92e-6,"MEAN_MOTION_DDOT":0},{"OBJECT_NAME":"QIANFAN-83","OBJECT_ID":"2025-046L","EPOCH":"2026-03-06T14:19:13.900224","MEAN_MOTION":13.62021812,"ECCENTRICITY":0.00125472,"INCLINATION":88.9758,"RA_OF_ASC_NODE":310.8681,"ARG_OF_PERICENTER":223.0104,"MEAN_ANOMALY":137.0074,"EPHEMERIS_TYPE":0,"CLASSIFICATION_TYPE":"U","NORAD_CAT_ID":63169,"ELEMENT_SET_NO":999,"REV_AT_EPOCH":5901,"BSTAR":0.00036777767,"MEAN_MOTION_DOT":2.96e-6,"MEAN_MOTION_DDOT":0},{"OBJECT_NAME":"QIANFAN-84","OBJECT_ID":"2025-046M","EPOCH":"2026-03-06T14:43:02.383392","MEAN_MOTION":13.50962202,"ECCENTRICITY":0.00139799,"INCLINATION":88.9758,"RA_OF_ASC_NODE":311.3872,"ARG_OF_PERICENTER":241.5711,"MEAN_ANOMALY":118.4032,"EPHEMERIS_TYPE":0,"CLASSIFICATION_TYPE":"U","NORAD_CAT_ID":63170,"ELEMENT_SET_NO":999,"REV_AT_EPOCH":5872,"BSTAR":0.00027596038,"MEAN_MOTION_DOT":1.9e-6,"MEAN_MOTION_DDOT":0},{"OBJECT_NAME":"QIANFAN-85","OBJECT_ID":"2025-046N","EPOCH":"2026-03-06T14:38:26.847744","MEAN_MOTION":13.51002686,"ECCENTRICITY":0.00114487,"INCLINATION":88.9757,"RA_OF_ASC_NODE":311.259,"ARG_OF_PERICENTER":243.8997,"MEAN_ANOMALY":116.0977,"EPHEMERIS_TYPE":0,"CLASSIFICATION_TYPE":"U","NORAD_CAT_ID":63171,"ELEMENT_SET_NO":999,"REV_AT_EPOCH":5879,"BSTAR":0.00025603568,"MEAN_MOTION_DOT":1.77e-6,"MEAN_MOTION_DDOT":0}]
