QIANFAN-69              
1 62799U 25016Q   26065.53799559  .00000045  00000+0  50758-4 0  9995
2 62799  88.9666  94.2773 0017972 102.2582 258.0583 13.51005417 58591
QIANFAN-70              
1 62800U 25016R   26065.55441863  .00000043  00000+0  47985-4 0  9998
2 62800  88.9687  94.4319 0017571  93.7624 266.5537 13.50997154 58557
QIANFAN-71              
1 62801U 25016S   26065.55024898  .00000035  00000+0  35346-4 0  9993
2 62801  88.9681  94.4067 0017864 105.3633 254.9493 13.50996607 58551
QIANFAN-72              
1 62802U 25016T   26065.56671781  .00000018  00000+0  89484-5 0  9998
2 62802  88.9671  94.4101 0021074 111.9725 248.3669 13.50996244 58541
QIANFAN-73              
1 63159U 25046A   26065.59357149  .00000179  00000+0  25896-3 0  9992
2 63159  88.9757 311.3628 0013190 239.7421 120.2425 13.50998716 58734
QIANFAN-74              
1 63160U 25046B   26065.65123422  .00000190  00000+0  27629-3 0  9995
2 63160  88.9757 311.2456 0001902  78.6169 281.5196 13.50998644 58805
QIANFAN-75              
1 63161U 25046C   26065.63837264  .00000078  00000+0  10283-3 0  9993
2 63161  88.9759 311.4818 0014356 243.2991 116.6691 13.50998026 58679
QIANFAN-76              
1 63162U 25046D   26065.04218544  .00000153  00000+0  21913-3 0  9999
2 63162  88.9760 311.5234 0011876 245.9495 114.0413 13.51014427 58609
QIANFAN-77              
1 63163U 25046E   26065.61232709  .00000415  00000+0  29186-3 0  9993
2 63163  88.9754 308.7821 0014585 171.2451 188.8983 13.96175397 60153
QIANFAN-78              
1 63164U 25046F   26065.60180459  .00000217  00000+0  31683-3 0  9992
2 63164  88.9757 311.3287 0013212 246.8637 113.1123 13.50998995 58751
QIANFAN-79              
1 63165U 25046G   26065.63073966  .00000199  00000+0  29019-3 0  9999
2 63165  88.9761 311.4366 0013075 244.9234 115.0560 13.51009093 58709
QIANFAN-80              
1 63166U 25046H   26065.64704472  .00000174  00000+0  25100-3 0  9994
2 63166  88.9758 311.1395 0011891 249.5610 110.4264 13.50998623 58860
QIANFAN-81              
1 63167U 25046J   26065.62520905  .00000174  00000+0  25101-3 0  9991
2 63167  88.9758 311.2096 0013010 237.3129 122.6768 13.50984475 58814
QIANFAN-82              
1 63168U 25046K   26065.65943009  .00000192  00000+0  27836-3 0  9996
2 63168  88.9758 311.2500 0011036 245.0496 114.9508 13.51000055 58803
QIANFAN-83              
1 63169U 25046L   26065.59668866  .00000296  00000+0  36778-3 0  9995
2 63169  88.9758 310.8681 0012547 223.0104 137.0074 13.62021812 59013
QIANFAN-84              
1 63170U 25046M   26065.61322203  .00000190  00000+0  27596-3 0  9993
2 63170  88.9758 311.3872 0013979 241.5711 118.4032 13.50962202 58720
QIANFAN-85              
1 63171U 25046N   26065.61003296  .00000177  00000+0  25604-3 0  9995
2 63171  88.9757 311.2590 0011448 243.8997 116.0977 13.51002686 58797
